[{"OBJECT_NAME":"STARLINK-34137","OBJECT_ID":"2025-099B","EPOCH":"2026-03-08T08:50:28.163328","MEAN_MOTION":15.27618399,"ECCENTRICITY":7.88e-5,"INCLINATION":42.9896,"RA_OF_ASC_NODE":183.7275,"ARG_OF_PERICENTER":169.4743,"MEAN_ANOMALY":190.6125,"EPHEMERIS_TYPE":0,"CLASSIFICATION_TYPE":"U","NORAD_CAT_ID":63953,"ELEMENT_SET_NO":999,"REV_AT_EPOCH":4713,"BSTAR":0.0015056,"MEAN_MOTION_DOT":0.00041452,"MEAN_MOTION_DDOT":0},{"OBJECT_NAME":"STARLINK-33974","OBJECT_ID":"2025-099C","EPOCH":"2026-03-08T07:53:19.373280","MEAN_MOTION":15.27611105,"ECCENTRICITY":6.13e-5,"INCLINATION":42.9966,"RA_OF_ASC_NODE":184.3013,"ARG_OF_PERICENTER":325.6674,"MEAN_ANOMALY":34.4138,"EPHEMERIS_TYPE":0,"CLASSIFICATION_TYPE":"U","NORAD_CAT_ID":63954,"ELEMENT_SET_NO":999,"REV_AT_EPOCH":4712,"BSTAR":0.0018724,"MEAN_MOTION_DOT":0.00051673,"MEAN_MOTION_DDOT":0},{"OBJECT_NAME":"STARLINK-34170","OBJECT_ID":"2025-099D","EPOCH":"2026-03-08T07:47:46.122432","MEAN_MOTION":15.27627673,"ECCENTRICITY":0.0001197,"INCLINATION":43.0045,"RA_OF_ASC_NODE":184.2742,"ARG_OF_PERICENTER":223.2496,"MEAN_ANOMALY":136.8262,"EPHEMERIS_TYPE":0,"CLASSIFICATION_TYPE":"U","NORAD_CAT_ID":63955,"ELEMENT_SET_NO":999,"REV_AT_EPOCH":4711,"BSTAR":0.0018868,"MEAN_MOTION_DOT":0.00052102,"MEAN_MOTION_DDOT":0},{"OBJECT_NAME":"STARLINK-34187","OBJECT_ID":"2025-099E","EPOCH":"2026-03-08T09:12:40.391712","MEAN_MOTION":15.27603295,"ECCENTRICITY":0.0003305,"INCLINATION":43.0023,"RA_OF_ASC_NODE":183.8541,"ARG_OF_PERICENTER":288.6869,"MEAN_ANOMALY":71.3624,"EPHEMERIS_TYPE":0,"CLASSIFICATION_TYPE":"U","NORAD_CAT_ID":63956,"ELEMENT_SET_NO":999,"REV_AT_EPOCH":4713,"BSTAR":0.0018581,"MEAN_MOTION_DOT":0.00051268,"MEAN_MOTION_DDOT":0},{"OBJECT_NAME":"STARLINK-34142","OBJECT_ID":"2025-099F","EPOCH":"2026-03-08T09:07:08.037696","MEAN_MOTION":15.27584978,"ECCENTRICITY":0.0001208,"INCLINATION":43.0005,"RA_OF_ASC_NODE":183.8245,"ARG_OF_PERICENTER":272.8686,"MEAN_ANOMALY":87.2027,"EPHEMERIS_TYPE":0,"CLASSIFICATION_TYPE":"U","NORAD_CAT_ID":63957,"ELEMENT_SET_NO":999,"REV_AT_EPOCH":4713,"BSTAR":0.0021135,"MEAN_MOTION_DOT":0.00058368,"MEAN_MOTION_DDOT":0},{"OBJECT_NAME":"STARLINK-34144","OBJECT_ID":"2025-099G","EPOCH":"2026-03-08T09:01:34.449024","MEAN_MOTION":15.2758303,"ECCENTRICITY":0.0001361,"INCLINATION":43.0008,"RA_OF_ASC_NODE":183.7961,"ARG_OF_PERICENTER":272.3732,"MEAN_ANOMALY":87.6964,"EPHEMERIS_TYPE":0,"CLASSIFICATION_TYPE":"U","NORAD_CAT_ID":63958,"ELEMENT_SET_NO":999,"REV_AT_EPOCH":4713,"BSTAR":0.001431,"MEAN_MOTION_DOT":0.00039329,"MEAN_MOTION_DDOT":0},{"OBJECT_NAME":"STARLINK-34099","OBJECT_ID":"2025-099H","EPOCH":"2026-03-08T07:44:04.017408","MEAN_MOTION":15.27615906,"ECCENTRICITY":8.93e-5,"INCLINATION":43.0038,"RA_OF_ASC_NODE":184.2555,"ARG_OF_PERICENTER":220.3464,"MEAN_ANOMALY":139.7321,"EPHEMERIS_TYPE":0,"CLASSIFICATION_TYPE":"U","NORAD_CAT_ID":63959,"ELEMENT_SET_NO":999,"REV_AT_EPOCH":4712,"BSTAR":0.0015664,"MEAN_MOTION_DOT":0.00043141,"MEAN_MOTION_DDOT":0},{"OBJECT_NAME":"STARLINK-34107","OBJECT_ID":"2025-099J","EPOCH":"2026-03-08T08:56:01.140288","MEAN_MOTION":15.27623637,"ECCENTRICITY":0.0001321,"INCLINATION":42.9974,"RA_OF_ASC_NODE":183.7627,"ARG_OF_PERICENTER":227.825,"MEAN_ANOMALY":132.2489,"EPHEMERIS_TYPE":0,"CLASSIFICATION_TYPE":"U","NORAD_CAT_ID":63960,"ELEMENT_SET_NO":999,"REV_AT_EPOCH":4713,"BSTAR":0.0019733,"MEAN_MOTION_DOT":0.00054513,"MEAN_MOTION_DDOT":0},{"OBJECT_NAME":"STARLINK-34121","OBJECT_ID":"2025-099K","EPOCH":"2026-03-08T08:46:45.997824","MEAN_MOTION":15.27620881,"ECCENTRICITY":0.0001437,"INCLINATION":42.9908,"RA_OF_ASC_NODE":183.7054,"ARG_OF_PERICENTER":171.8626,"MEAN_ANOMALY":188.2249,"EPHEMERIS_TYPE":0,"CLASSIFICATION_TYPE":"U","NORAD_CAT_ID":63961,"ELEMENT_SET_NO":999,"REV_AT_EPOCH":4713,"BSTAR":0.0019287,"MEAN_MOTION_DOT":0.00053262,"MEAN_MOTION_DDOT":0},{"OBJECT_NAME":"STARLINK-34103","OBJECT_ID":"2025-099L","EPOCH":"2026-03-08T08:41:13.199712","MEAN_MOTION":15.2761763,"ECCENTRICITY":0.0001284,"INCLINATION":43.0032,"RA_OF_ASC_NODE":183.6858,"ARG_OF_PERICENTER":225.6697,"MEAN_ANOMALY":134.405,"EPHEMERIS_TYPE":0,"CLASSIFICATION_TYPE":"U","NORAD_CAT_ID":63962,"ELEMENT_SET_NO":999,"REV_AT_EPOCH":4713,"BSTAR":0.0014133,"MEAN_MOTION_DOT":0.0003888,"MEAN_MOTION_DDOT":0},{"OBJECT_NAME":"STARLINK-33801","OBJECT_ID":"2025-099M","EPOCH":"2026-03-08T08:30:08.123616","MEAN_MOTION":15.27584255,"ECCENTRICITY":5.26e-5,"INCLINATION":42.9994,"RA_OF_ASC_NODE":183.6228,"ARG_OF_PERICENTER":192.3723,"MEAN_ANOMALY":167.7115,"EPHEMERIS_TYPE":0,"CLASSIFICATION_TYPE":"U","NORAD_CAT_ID":63963,"ELEMENT_SET_NO":999,"REV_AT_EPOCH":4713,"BSTAR":0.0012887,"MEAN_MOTION_DOT":0.00035374,"MEAN_MOTION_DDOT":0},{"OBJECT_NAME":"STARLINK-34135","OBJECT_ID":"2025-099N","EPOCH":"2026-03-08T08:35:40.104384","MEAN_MOTION":15.27601254,"ECCENTRICITY":0.000315,"INCLINATION":42.999,"RA_OF_ASC_NODE":183.6553,"ARG_OF_PERICENTER":287.3811,"MEAN_ANOMALY":72.6696,"EPHEMERIS_TYPE":0,"CLASSIFICATION_TYPE":"U","NORAD_CAT_ID":63964,"ELEMENT_SET_NO":999,"REV_AT_EPOCH":4713,"BSTAR":0.001493,"MEAN_MOTION_DOT":0.00041082,"MEAN_MOTION_DDOT":0},{"OBJECT_NAME":"STARLINK-34147","OBJECT_ID":"2025-099P","EPOCH":"2026-03-08T08:24:33.399648","MEAN_MOTION":15.2759944,"ECCENTRICITY":0.0001244,"INCLINATION":42.999,"RA_OF_ASC_NODE":183.5915,"ARG_OF_PERICENTER":250.2007,"MEAN_ANOMALY":109.8711,"EPHEMERIS_TYPE":0,"CLASSIFICATION_TYPE":"U","NORAD_CAT_ID":63965,"ELEMENT_SET_NO":999,"REV_AT_EPOCH":4713,"BSTAR":0.00084071,"MEAN_MOTION_DOT":0.00022958,"MEAN_MOTION_DDOT":0},{"OBJECT_NAME":"STARLINK-33960","OBJECT_ID":"2025-099Q","EPOCH":"2026-03-07T15:03:17.633952","MEAN_MOTION":15.27627492,"ECCENTRICITY":4.47e-5,"INCLINATION":42.9973,"RA_OF_ASC_NODE":187.623,"ARG_OF_PERICENTER":281.597,"MEAN_ANOMALY":78.4831,"EPHEMERIS_TYPE":0,"CLASSIFICATION_TYPE":"U","NORAD_CAT_ID":63966,"ELEMENT_SET_NO":999,"REV_AT_EPOCH":4702,"BSTAR":0.0012275,"MEAN_MOTION_DOT":0.00033719,"MEAN_MOTION_DDOT":0},{"OBJECT_NAME":"STARLINK-34153","OBJECT_ID":"2025-099R","EPOCH":"2026-03-08T08:09:46.166688","MEAN_MOTION":15.27589264,"ECCENTRICITY":3.53e-5,"INCLINATION":42.9958,"RA_OF_ASC_NODE":183.5134,"ARG_OF_PERICENTER":314.9121,"MEAN_ANOMALY":45.1702,"EPHEMERIS_TYPE":0,"CLASSIFICATION_TYPE":"U","NORAD_CAT_ID":63967,"ELEMENT_SET_NO":999,"REV_AT_EPOCH":4713,"BSTAR":0.0013136,"MEAN_MOTION_DOT":0.00036073,"MEAN_MOTION_DDOT":0},{"OBJECT_NAME":"STARLINK-33963","OBJECT_ID":"2025-099S","EPOCH":"2026-03-08T08:15:18.831744","MEAN_MOTION":15.27610498,"ECCENTRICITY":7.95e-5,"INCLINATION":42.994,"RA_OF_ASC_NODE":183.5394,"ARG_OF_PERICENTER":283.3007,"MEAN_ANOMALY":76.7755,"EPHEMERIS_TYPE":0,"CLASSIFICATION_TYPE":"U","NORAD_CAT_ID":63968,"ELEMENT_SET_NO":999,"REV_AT_EPOCH":4713,"BSTAR":0.0018648,"MEAN_MOTION_DOT":0.00051461,"MEAN_MOTION_DDOT":0},{"OBJECT_NAME":"STARLINK-34112","OBJECT_ID":"2025-099T","EPOCH":"2026-03-08T08:04:12.299808","MEAN_MOTION":15.27562668,"ECCENTRICITY":8.61e-5,"INCLINATION":43.0003,"RA_OF_ASC_NODE":183.4832,"ARG_OF_PERICENTER":287.737,"MEAN_ANOMALY":72.3387,"EPHEMERIS_TYPE":0,"CLASSIFICATION_TYPE":"U","NORAD_CAT_ID":63969,"ELEMENT_SET_NO":999,"REV_AT_EPOCH":4713,"BSTAR":0.00087586,"MEAN_MOTION_DOT":0.00023905,"MEAN_MOTION_DDOT":0}]
