STARLINK-34137          
1 63953U 25099B   26067.36838152  .00041452  00000+0  15056-2 0  9992
2 63953  42.9896 183.7275 0000788 169.4743 190.6125 15.27618399 47136
STARLINK-33974          
1 63954U 25099C   26067.32869645  .00051673  00000+0  18724-2 0  9991
2 63954  42.9966 184.3013 0000613 325.6674  34.4138 15.27611105 47124
STARLINK-34170          
1 63955U 25099D   26067.32483938  .00052102  00000+0  18868-2 0  9996
2 63955  43.0045 184.2742 0001197 223.2496 136.8262 15.27627673 47117
STARLINK-34187          
1 63956U 25099E   26067.38380083  .00051268  00000+0  18581-2 0  9994
2 63956  43.0023 183.8541 0003305 288.6869  71.3624 15.27603295 47139
STARLINK-34142          
1 63957U 25099F   26067.37995414  .00058368  00000+0  21135-2 0  9991
2 63957  43.0005 183.8245 0001208 272.8686  87.2027 15.27584978 47132
STARLINK-34144          
1 63958U 25099G   26067.37609316  .00039329  00000+0  14310-2 0  9998
2 63958  43.0008 183.7961 0001361 272.3732  87.6964 15.27583030 47139
STARLINK-34099          
1 63959U 25099H   26067.32226872  .00043141  00000+0  15664-2 0  9996
2 63959  43.0038 184.2555 0000893 220.3464 139.7321 15.27615906 47125
STARLINK-34107          
1 63960U 25099J   26067.37223542  .00054513  00000+0  19733-2 0  9990
2 63960  42.9974 183.7627 0001321 227.8250 132.2489 15.27623637 47134
STARLINK-34121          
1 63961U 25099K   26067.36581016  .00053262  00000+0  19287-2 0  9997
2 63961  42.9908 183.7054 0001437 171.8626 188.2249 15.27620881 47132
STARLINK-34103          
1 63962U 25099L   26067.36195833  .00038880  00000+0  14133-2 0  9990
2 63962  43.0032 183.6858 0001284 225.6697 134.4050 15.27617630 47131
STARLINK-33801          
1 63963U 25099M   26067.35426069  .00035374  00000+0  12887-2 0  9997
2 63963  42.9994 183.6228 0000526 192.3723 167.7115 15.27584255 47133
STARLINK-34135          
1 63964U 25099N   26067.35810306  .00041082  00000+0  14930-2 0  9993
2 63964  42.9990 183.6553 0003150 287.3811  72.6696 15.27601254 47137
STARLINK-34147          
1 63965U 25099P   26067.35038657  .00022958  00000+0  84071-3 0  9990
2 63965  42.9990 183.5915 0001244 250.2007 109.8711 15.27599440 47131
STARLINK-33960          
1 63966U 25099Q   26066.62728743  .00033719  00000+0  12275-2 0  9995
2 63966  42.9973 187.6230 0000447 281.5970  78.4831 15.27627492 47029
STARLINK-34153          
1 63967U 25099R   26067.34011767  .00036073  00000+0  13136-2 0  9990
2 63967  42.9958 183.5134 0000353 314.9121  45.1702 15.27589264 47130
STARLINK-33963          
1 63968U 25099S   26067.34396796  .00051461  00000+0  18648-2 0  9990
2 63968  42.9940 183.5394 0000795 283.3007  76.7755 15.27610498 47134
STARLINK-34112          
1 63969U 25099T   26067.33625347  .00023905  00000+0  87586-3 0  9997
2 63969  43.0003 183.4832 0000861 287.7370  72.3387 15.27562668 47136
